<?xml version="1.0" encoding="UTF-8"?>
<kml xmlns="http://www.opengis.net/kml/2.2">
  <Document>
    <name>Circuito</name>
    <Placemark>
      <name>Recorrido</name>
      <LineString>
        <tessellate>1</tessellate>
        <coordinates>
          -0.631068074,39.483560512,153.96 -0.626365237,39.486056226,146.67 -0.626066543,39.486356074,146.22 -0.626049043,39.486742136,146.26 -0.627457653,39.489370922,151.54 -0.627788446,39.489456029,151.79 -0.628034771,39.489293243,152.1 -0.628265216,39.488023206,151.17 -0.627106454,39.486828170,148.4 -0.627231750,39.486619888,148.5 -0.628388533,39.486017478,149.0 -0.628899391,39.486116281,149.7 -0.629109715,39.486437318,150.25 -0.629147765,39.488336723,154.97 -0.629489364,39.488553665,156.3 -0.629833002,39.488481863,156.75 -0.632700867,39.486929289,162.33 -0.633702779,39.485504600,162.8 -0.633450342,39.485131705,161.61 -0.632935780,39.485061269,159.7 -0.631635029,39.485795628,156.7 -0.631361181,39.486729825,156.5 -0.630960767,39.487064718,156.3 -0.630392500,39.487337073,155.5 -0.630039354,39.487237097,155.3 -0.629919816,39.486910356,154.8 -0.631772275,39.484571816,156.3 -0.633269225,39.484513619,162.0 -0.634383034,39.484041182,165.2 -0.635081613,39.483150028,165.4 -0.635217516,39.482479070,163.2 -0.635091542,39.481742084,159.7 -0.634716592,39.481602863,158.6 -0.631068074,39.483560512,153.96
        </coordinates>
      </LineString>
    </Placemark>
  </Document>
</kml>
